OSCAR III [-]           
1 01293U 65016F   08113.23459307  .00000020  00000-0  45935-4 0  2264
2 01293  70.0765   1.1128 0017382   4.6248 355.5024 14.04630494200696
AO-5 [-]                
1 04321U 70008B   08112.03905102 -.00000031  00000-0  10000-3 0  9907
2 04321 102.1255 109.2101 0027878  58.8919 301.4881 12.52153114747923
AO-6 [-]                
1 06236U 72082B   08111.97141939 -.00000027  00000-0  10000-3 0  9938
2 06236 101.4186 136.0102 0003897   1.3416 358.7663 12.53073458624520
AO-7 [P]                
1 07530U 74089B   08112.79063115 -.00000027  00000-0  10000-3 0  1577
2 07530 101.4711 146.1641 0011876  13.7426 346.3964 12.53573750529910
AO-8 [-]                
1 10703U 78026B   08113.18810922 -.00000274  00000-0 -16063-3 0  1297
2 10703  98.8897 166.4678 0006253 254.9762 105.0710 13.98809158537169
AO-10 [-]               
1 14129U 83058B   08111.45253675  .00000093  00000-0  10000-3 0  4978
2 14129  25.9251 219.4152 6004814 116.9868 315.3427  2.05869528158946
UO-11 [P]               
1 14781U 84021B   08112.17791090 -.00000205  00000-0 -19993-4 0  6498
2 14781  98.1590 145.3455 0008054 255.0821 104.9518 14.79633638295422
FO-12 [-]               
1 16909U 86061B   08112.20994130 -.00000083  00000-0  10000-3 0  3738
2 16909  50.0178  19.1438 0010718 211.3807 148.6388 12.44451471986434
UO-14 [-]               
1 20437U 90005B   08112.93709272  .00000008  00000-0  18604-4 0  6180
2 20437  98.2821  83.0407 0011051 345.2018  14.8839 14.31513695952783
UO-15 [-]               
1 20438U 90005C   08112.90057923  .00000002  00000-0  16644-4 0  1043
2 20438  98.3423  73.9486 0010447   9.6076 350.5305 14.30422774952246
AO-16 [P]               
1 20439U 90005D   08112.53561574  .00000016  00000-0  21311-4 0  3027
2 20439  98.2262  95.5057 0011134 351.0508   9.0486 14.31791014952815
DO-17 [-]               
1 20440U 90005E   08113.11442786 -.00000004  00000-0  13721-4 0    39
2 20440  98.2074 101.6793 0010948 345.8739  14.2145 14.32092603953026
WO-18 [-]               
1 20441U 90005F   08112.41980213  .00000015  00000-0  20974-4 0  5128
2 20441  98.2121  99.5220 0011762 350.8266   9.2715 14.31858609952869
LO-19 [P]               
1 20442U 90005G   08112.03335529 -.00000131  00000-0 -33599-4 0  2283
2 20442  98.1973 103.7348 0011891 350.2490   9.8468 14.32028762952893
FO-20 [-]               
1 20480U 90013C   08112.50507163 -.00000012  00000-0  39619-4 0  8148
2 20480  99.0231 106.3301 0541036  45.4495 318.9476 12.83357080852813
AO-21 [-]               
1 21087U 91006A   08112.12709903  .00000021  00000-0  64772-5 0  9407
2 21087  82.9457 358.6511 0036278  23.8568 336.4271 13.75032139864415
RS-12 & RS-13 [-]       
1 21089U 91007A   08112.84852986  .00000009  00000-0 -64628-5 0  8236
2 21089  82.9230 219.3204 0030788  64.4152 296.0182 13.74478507863310
UO-22 [-]               
1 21575U 91050B   08112.93642683 -.00000036  00000-0  22146-5 0  2609
2 21575  98.3925  63.1271 0006958 196.6840 163.4118 14.39635177880095
KO-23 [-]               
1 22077U 92052B   08112.39390541 -.00000037  00000-0  10000-3 0  4060
2 22077  66.0827 130.0384 0005171 193.4672 166.6207 12.86444075737268
AO-24 [-]               
1 22654U 93031B   08111.87111747 -.00000117  00000-0  10000-3 0  1279
2 22654   5.3995 345.0735 2899156 136.6017 249.9047  1.42205408 73116
AO-27 [+]               
1 22825U 93061C   08112.49468297  .00000060  00000-0  40174-4 0  9502
2 22825  98.3789  74.6569 0009377  70.0693 290.1508 14.29236729759677
IO-26 [-]               
1 22826U 93061D   08112.90855331 -.00000002  00000-0  15574-4 0  6542
2 22826  98.3720  75.9909 0009896  65.6314 294.5903 14.29484846759820
KO-25 [-]               
1 22828U 93061F   08112.96176655 -.00000081  00000-0 -15119-4 0  8832
2 22828  98.3660  76.0423 0010565  43.0248 317.1750 14.29788820728095
PO-28 [+]               
1 22829U 93061G   08112.92263193 -.00000009  00000-0  12724-4 0  9269
2 22829  98.3589  77.1185 0010643  39.4126 320.7822 14.30186678760084
RS-15 [P]               
1 23439U 94085A   08112.78319554 -.00000039  00000-0  10000-3 0  1114
2 23439  64.8157 226.2538 0149271 133.6129 227.7289 11.27552037548604
FO-29 [P]               
1 24278U 96046B   08111.95662608 -.00000017  00000-0  19864-4 0  7675
2 24278  98.5876  35.7270 0351180   3.8259 356.5442 13.52937161576653
MO-30 [-]               
1 24305U 96052B   08111.82517462  .00000055  00000-0  42400-4 0  7882
2 24305  82.9332 306.4128 0030298 352.7698   7.3016 13.73557677582697
TO-31 [-]               
1 25396U 98043C   08113.18360174 -.00000164  00000-0 -53733-4 0   889
2 25396  98.3808 155.9118 0003177  42.2385 317.9046 14.23753249508390
GO-32 [P]               
1 25397U 98043D   08113.14609215  .00000037  00000-0  34581-4 0  5802
2 25397  98.3684 151.0625 0001963  64.2130 295.9287 14.23142030508242
SO-33 [P]               
1 25509U 98061B   08112.85118858  .00000069  00000-0 -85444-6 0  1800
2 25509  31.4332 274.8898 0355706 254.5451 101.5756 14.28211730495559
PO-34 [-]               
1 25520U 98064B   08112.56004327  .00000499  00000-0  14797-4 0  9769
2 25520  28.4596 197.8850 0005041  29.8968 330.1914 15.17176738524558
ARISS [+]               
1 25544U 98067A   08113.30398148  .00035166  00000-0  21325-3 0  3507
2 25544  51.6429 304.3757 0004006  59.0993 290.3891 15.77180569539708
SO-35 [-]               
1 25636U 99008C   08113.00012177 -.00000006  00000-0  61716-5 0  9914
2 25636  96.4865  31.8172 0149276 115.0596 246.6169 14.43429365482346
UO-36 [-]               
1 25693U 99021A   08113.01014684  .00000036  00000-0  24473-4 0  6117
2 25693  64.5589 329.7552 0045062 244.2596 115.3843 14.78706573485567
OO-38 [-]               
1 26063U 00004C   08112.70823669 -.00000005  00000-0  18382-4 0  1910
2 26063 100.1951 177.1075 0036899   9.2650 350.9203 14.35832898431462
SO-41 [-]               
1 26545U 00057A   08112.99990671 -.00000071  00000-0  95705-5 0  9468
2 26545  64.5589 335.2888 0022438 349.5951  10.4673 14.80499487408842
MO-46 [-]               
1 26548U 00057D   08113.00412109  .00000108  00000-0  31193-4 0   785
2 26548  64.5567 304.1220 0023518 332.1872  27.7963 14.83251838409489
SO-42 [-]               
1 26549U 00057E   08112.97495917 -.00000045  00000-0  13081-4 0   236
2 26549  64.5601 349.6787 0022841   1.0833 359.0294 14.79358189408555
AO-40 [-]               
1 26609U 00072B   08112.28164447 -.00000159  00000-0  10000-3 0   452
2 26609   7.5760  86.8001 7915795  73.5193 353.4486  1.25583993 34324
NO-44 [P]               
1 26931U 01043C   08113.17435280  .00000145  00000-0  89068-4 0  8592
2 26931  67.0526  68.9491 0005968 278.7922  81.2504 14.29520323342405
NO-45 [-]               
1 26932U 01043D   08113.22464329 -.00000031  00000-0  20218-4 0  8660
2 26932  67.0504  68.6618 0003955 278.1518  81.9134 14.29582633342452
BO-47 & BO-48 [-]       
1 27422U 02021B   08112.29005399  .00000037  00000-0  31972-4 0  7300
2 27422  98.5516 194.5092 0012863  25.7715 334.4105 14.28441679309176
AO-49 [-]               
1 27605U 02058A   08112.75607911 -.00000075  00000-0  10701-4 0  6143
2 27605  64.5589 214.0971 0083055 291.2925  67.9310 14.72342110286898
SO-50 [+]               
1 27607U 02058C   08112.32101304 -.00000005  00000-0  21345-4 0  5837
2 27607  64.5591 226.3368 0083854 290.6666  68.5451 14.71347184286608
DTUSAT [-]              
1 27842U 03031C   08112.04023922  .00000041  00000-0  39166-4 0  2687
2 27842  98.7114 122.0869 0008471 262.6634  97.3574 14.20926964249397
CO-55 [+]               
1 27844U 03031E   08112.24471491  .00000098  00000-0  66033-4 0  2864
2 27844  98.7171 121.3009 0009105 283.6803  76.3375 14.20573948249358
AAU CUBESAT [-]         
1 27846U 03031G   08111.96961827  .00000070  00000-0  52721-4 0  2129
2 27846  98.7118 122.0136 0008624 261.8073  98.2120 14.20927991249387
CANX-1 [-]              
1 27847U 03031H   08111.97363397  .00000067  00000-0  51316-4 0  2247
2 27847  98.7119 122.0132 0008577 261.2606  98.7587 14.20915311249338
CO-57 [+]               
1 27848U 03031J   08112.51692105  .00000038  00000-0  38378-4 0  2387
2 27848  98.7177 120.6766 0009135 286.7680  73.2490 14.20383618249368
RS-22 [+]               
1 27939U 03042A   08112.69904599  .00000135  00000-0  35100-4 0  4775
2 27939  98.0040 355.4535 0014335  26.2758 333.9178 14.63224216243935
AO-51 [+]               
1 28375U 04025K   08112.09490226  .00000015  00000-0  17491-4 0   814
2 28375  98.0768 139.8645 0084378 326.8191  32.7715 14.40604214200183
VO-52 [+]               
1 28650U 05017B   08112.40069248 -.00000168  00000-0 -14609-4 0  9103
2 28650  97.7923 180.5595 0026432 328.1652  31.7956 14.81449492160191
UWE-1 [-]               
1 28892U 05043C   08112.94035097  .00000125  00000-0  35915-4 0   288
2 28892  98.1031   7.9094 0016461 222.9427 137.0500 14.59617906132390
XO-53 [-]               
1 28894U 05043E   08112.75460030  .00000039  00000-0  17841-4 0  1405
2 28894  98.1037   7.9762 0016681 226.1481 133.8358 14.59612763132379
CO-58 [+]               
1 28895U 05043F   08112.90982489  .00000161  00000-0  43441-4 0    28
2 28895  98.1052   8.2146 0017016 222.8955 137.0915 14.59659278132275
NCUBE-2 [-]             
1 28897U 05043H   08112.67528141  .00000104  00000-0  31266-4 0  5322
2 28897  98.1025   7.9196 0016289 226.5515 133.4325 14.59828072124526
CO-56 [P]               
1 28941U 06005C   08112.85127912  .00019639  26522-5  15970-3 0  9908
2 28941  98.1023 215.9936 0175953 245.1135 113.1695 15.53739792121286
HO-59 [+]               
1 29484U 06041F   08113.19393414  .00145091  10149-4  36248-3 0  3242
2 29484  98.2435 221.8113 0091589 209.3403 150.2747 15.88699124 89580
FCAL [+]                
1 29667U 06055J   08112.79993375  .00154674  23999-4  12032-3 0  9039
2 29667  51.6254 250.6489 0001421 114.6539 245.4716 16.14401391 77469
PEHUENSAT 1 [+]         
1 29712U 07001D   08113.11456243  .00000616  00000-0  87896-4 0  3795
2 29712  97.8787 172.3451 0013640 199.4411 160.6284 14.80113020 69175
